1 43873U 18109A   21033.48584963  .00000058  00000-0  00000-0 0  9993
2 43873  55.0239 169.6238 0011324 197.8680  84.8747  2.00572555 15786
1 43873U 18109A   21033.65789030  .00000057  00000-0  00000-0 0  9993
2 43873  55.0239 169.6170 0011329 197.8789 209.0917  2.00572553 15795
1 43873U 18109A   21034.49935473  .00000054  00000-0  00000+0 0  9996
2 43873  55.0239 169.5837 0011355 197.8718  96.7081  2.00572583 15713
1 43873U 18109A   21034.49935473  .00000054  00000-0  00000-0 0  9997
2 43873  55.0239 169.5837 0011355 197.8718  96.7081  2.00572583 15803
1 43873U 18109A   21035.55103767  .00000044  00000-0  00000-0 0  9997
2 43873  55.0239 169.5422 0011392 197.9105 136.0742  2.00572625 15826
1 43873U 18109A   21035.92001382  .00000039  00000-0  00000-0 0  9992
2 43873  55.0239 169.5277 0011406 197.9337  42.4832  2.00572638 15832
1 43873U 18109A   21036.60482263  .00000028  00000-0  00000-0 0  9997
2 43873  55.0239 169.5006 0011432 198.0061 176.9014  2.00572675 15855
1 43873U 18109A   21036.69491715  .00000026  00000-0  00000+0 0  9995
2 43873  55.0239 169.4970 0011435 198.0133 241.9501  2.00572677 15763
1 43873U 18109A   21036.69491715  .00000026  00000-0  00000-0 0  9996
2 43873  55.0239 169.4970 0011435 198.0133 241.9501  2.00572677 15853
1 43873U 18109A   21037.63067806  .00000010  00000-0  00000-0 0  9994
2 43873  55.0239 169.4600 0011472 198.0995 197.5634  2.00572736 15871
1 43873U 18109A   21037.70598313  .00000009  00000-0  00000-0 0  9992
2 43873  55.0239 169.4570 0011475 198.1057 251.9339  2.00572740 15872
1 43873U 18109A   21038.54026262 -.00000005  00000-0  00000-0 0  9991
2 43873  55.0239 169.4241 0011510 198.1752 134.2858  2.00572801 15887
1 43873U 18109A   21038.65779767 -.00000007  00000-0  00000-0 0  9990
2 43873  55.0239 169.4194 0011513 198.1899 219.1415  2.00572808 15899
1 43873U 18109A   21039.13003000 -.00000014  00000-0  00000+0 0  9991
2 43873  55.0239 169.4007 0011531 198.2186 200.1051  2.00572844 15810
1 43873U 18109A   21039.54494021 -.00000019  00000-0  00000-0 0  9999
2 43873  55.0239 169.3843 0011549 198.2422 139.6825  2.00572878 15901
1 43873U 18109A   21039.66446358 -.00000020  00000-0  00000-0 0  9994
2 43873  55.0239 169.3796 0011552 198.2473 225.9835  2.00572885 15917
1 43873U 18109A   21040.58434104 -.00000026  00000-0  00000-0 0  9999
2 43873  55.0239 169.3433 0011587 198.2860 170.1759  2.00572962 15937
1 43873U 18109A   21040.90973719 -.00000027  00000-0  00000-0 0  9996
2 43873  55.0239 169.3304 0011602 198.3168  45.1092  2.00572988 15933
1 43873U 18109A   21041.31588292 -.00000028  00000-0  00000+0 0  9990
2 43873  55.0239 169.3143 0011617 198.3402 338.3582  2.00573016 15856
1 43873U 18109A   21041.31588292 -.00000028  00000-0  00000-0 0  9991
2 43873  55.0239 169.3143 0011617 198.3402 338.3582  2.00573016 15946
1 43873U 18109A   21041.69572285 -.00000027  00000-0  00000-0 0  9996
2 43873  55.0239 169.2993 0011630 198.3792 252.5964  2.00573040 15954
1 43873U 18109A   21042.52811150 -.00000022  00000-0  00000-0 0  9991
2 43873  55.0240 169.2665 0011663 198.4797 133.5526  2.00573102 15966
1 43873U 18109A   21042.63823928 -.00000021  00000-0  00000-0 0  9998
2 43873  55.0240 169.2622 0011665 198.4820 213.0722  2.00573106 15975
1 43873U 18109A   21043.41082676 -.00000014  00000-0  00000+0 0  9993
2 43873  55.0240 169.2317 0011696 198.5758  50.8537  2.00573158 15890
1 43873U 18109A   21043.59551561 -.00000012  00000-0  00000-0 0  9995
2 43873  55.0240 169.2244 0011698 198.5890 184.2020  2.00573166 15997
1 43873U 18109A   21043.65466503 -.00000011  00000-0  00000-0 0  9992
2 43873  55.0240 169.2220 0011693 198.5232 226.9789  2.00573168 15994
1 43873U 18109A   21044.42559818 -.00000003  00000-0  00000-0 0  9991
2 43873  55.0240 169.1917 0011726 198.6931  63.4900  2.00573216 16006
1 43873U 18109A   21044.66487236  .00000000  00000-0  00000-0 0  9997
2 43873  55.0240 169.1822 0011721 198.6271 236.3330  2.00573226 16013
1 43873U 18109A   21045.54453112  .00000008  00000-0  00000+0 0  9998
2 43873  55.0241 169.1476 0011746 198.7418 151.4089  2.00573273 15941
1 43873U 18109A   21045.54453112  .00000008  00000-0  00000-0 0  9999
2 43873  55.0241 169.1476 0011746 198.7418 151.4089  2.00573273 16021
1 43873U 18109A   21045.68104637  .00000010  00000-0  00000-0 0  9992
2 43873  55.0241 169.1422 0011748 198.7536 249.9731  2.00573276 16036
1 43873U 18109A   21046.56057601  .00000016  00000-0  00000-0 0  9994
2 43873  55.0242 169.1075 0011772 198.8916 164.9325  2.00573313 16050
1 43873U 18109A   21046.69349403  .00000016  00000-0  00000-0 0  9992
2 43873  55.0242 169.1023 0011772 198.8741 260.9284  2.00573317 16054
1 43873U 18109A   21047.39587050  .00000018  00000-0  00000-0 0  9994
2 43873  55.0243 169.0747 0011790 198.9659  48.0140  2.00573345 16064
1 43873U 18109A   21047.63519611  .00000019  00000-0  00000+0 0  9999
2 43873  55.0243 169.0652 0011793 199.0038 220.7903  2.00573354 15981
1 43873U 18109A   21048.56797257  .00000017  00000-0  00000-0 0  9995
2 43873  55.0244 169.0285 0011810 199.0839 174.2568  2.00573387 16092
1 43873U 18109A   21048.64947622  .00000017  00000-0  00000-0 0  9997
2 43873  55.0243 169.0253 0011811 199.0903 233.1031  2.00573389 16091
1 43873U 18109A   21049.42434319  .00000014  00000-0  00000-0 0  9995
2 43873  55.0244 168.9948 0011822 199.1079  72.6077  2.00573416 16107
1 43873U 18109A   21049.66230955  .00000013  00000-0  00000+0 0  9999
2 43873  55.0244 168.9855 0011824 199.1431 244.4052  2.00573422 16028
1 43873U 18109A   21049.89219219  .00000011  00000-0  00000-0 0  9993
2 43873  55.0244 168.9764 0011830 199.1739  50.3698  2.00573428 16111
